[{"OBJECT_NAME":"STARLINK-5866","OBJECT_ID":"2023-094R","EPOCH":"2026-03-09T22:00:01.999584","MEAN_MOTION":15.13650488,"ECCENTRICITY":0.00017672,"INCLINATION":43.0008,"RA_OF_ASC_NODE":28.3845,"ARG_OF_PERICENTER":256.8275,"MEAN_ANOMALY":60.3723,"EPHEMERIS_TYPE":0,"CLASSIFICATION_TYPE":"U","NORAD_CAT_ID":57233,"ELEMENT_SET_NO":999,"REV_AT_EPOCH":577,"BSTAR":0.0044796567,"MEAN_MOTION_DOT":0.00082702,"MEAN_MOTION_DDOT":0},{"OBJECT_NAME":"OBJECT C","OBJECT_ID":"2026-027C","EPOCH":"2026-03-09T23:08:13.765344","MEAN_MOTION":15.17820753,"ECCENTRICITY":0.00106742,"INCLINATION":97.491,"RA_OF_ASC_NODE":197.9834,"ARG_OF_PERICENTER":198.1811,"MEAN_ANOMALY":161.9042,"EPHEMERIS_TYPE":0,"CLASSIFICATION_TYPE":"U","NORAD_CAT_ID":67748,"ELEMENT_SET_NO":999,"REV_AT_EPOCH":390,"BSTAR":0.00040034515,"MEAN_MOTION_DOT":8.044e-5,"MEAN_MOTION_DDOT":0}]
